ONEWEB-0589             
1 54655U 22166P   24354.48526054  .00000044  00000+0  73821-4 0  9996
2 54655  87.9294 352.5081 0002647  79.6791 280.4642 13.21828755 99587
ONEWEB-0590             
1 54656U 22166Q   24354.58461055  .00000097  00000+0  20324-3 0  9994
2 54656  87.9281 352.4931 0001921  92.4785 267.6569 13.21827307 99584
ONEWEB-0591             
1 54657U 22166R   24354.52155021  .00000045  00000+0  76762-4 0  9993
2 54657  87.9291 352.5027 0001987  88.3078 271.8283 13.21826138 99608
ONEWEB-0592             
1 54658U 22166S   24354.52468725 -.00000001  00000+0 -33356-4 0  9998
2 54658  87.9289 352.4610 0001966  89.6814 270.4546 13.21823999 99487
ONEWEB-0593             
1 54659U 22166T   24354.54833818  .00000050  00000+0  90211-4 0  9995
2 54659  87.9292 352.4883 0002015  86.7447 273.3917 13.21825237 99593
ONEWEB-0594             
1 54660U 22166U   24354.49157295  .00000072  00000+0  14256-3 0  9997
2 54660  87.9298 352.5057 0001760  86.8894 273.2441 13.21824783 99606
ONEWEB-0595             
1 54661U 22166V   24354.46950215  .00000005  00000+0 -19018-4 0  9997
2 54661  87.9294 352.4932 0001718  93.7084 266.4246 13.21826925 99578
ONEWEB-0596             
1 54662U 22166W   24354.51837572  .00000063  00000+0  12021-3 0  9993
2 54662  87.9297 352.4924 0002033  90.8417 269.2950 13.21823323 99585
ONEWEB-0597             
1 54663U 22166X   24354.49944890  .00000080  00000+0  16156-3 0  9995
2 54663  87.9297 352.4985 0001950  83.3938 276.7417 13.21828795 99584
ONEWEB-0600             
1 54664U 22166Y   24354.55780201  .00000055  00000+0  10170-3 0  9999
2 54664  87.9289 352.5166 0001887  84.3145 275.8204 13.21827730 99568
ONEWEB-0601             
1 54665U 22166Z   24354.54991760  .00000023  00000+0  23588-4 0  9996
2 54665  87.9299 352.4965 0002283  86.5670 273.5725 13.21827777 99759
ONEWEB-0602             
1 54666U 22166AA  24354.51523698  .00000081  00000+0  16395-3 0  9996
2 54666  87.9296 352.5054 0001984  81.6244 278.5115 13.21823625 99595
ONEWEB-0603             
1 54667U 22166AB  24354.51994749  .00000031  00000+0  44711-4 0  9995
2 54667  87.9272 352.4940 0002115  84.0115 276.1260 13.21828800 99522
ONEWEB-0604             
1 54668U 22166AC  24354.50734408 -.00000090  00000+0 -24882-3 0  9992
2 54668  87.9293 352.4780 0002172  81.8235 278.3145 13.21824317 99489
ONEWEB-0605             
1 54669U 22166AD  24354.50104802  .00000089  00000+0  18307-3 0  9993
2 54669  87.9292 352.5109 0002529  93.4795 266.6628 13.21825959 99558
ONEWEB-0606             
1 54670U 22166AE  24354.52312742 -.00000002  00000+0 -35694-4 0  9997
2 54670  87.9297 352.5072 0001653  92.9333 267.1990 13.21826142 99613
ONEWEB-0607             
1 54671U 22166AF  24354.48998705  .00000046  00000+0  79117-4 0  9996
2 54671  87.9294 352.4851 0001983  83.8353 276.3007 13.21828398 99584
ONEWEB-0608             
1 54672U 22166AG  24354.49629659  .00000079  00000+0  15964-3 0  9992
2 54672  87.9277 352.5044 0002306  85.4777 274.6620 13.21828086 99596
ONEWEB-0610             
1 54673U 22166AH  24354.55309084  .00000104  00000+0  22025-3 0  9992
2 54673  87.9293 352.4908 0002305  86.9777 273.1621 13.21826481 99501
ONEWEB-0611             
1 54674U 22166AJ  24354.54675929  .00000056  00000+0  10348-3 0  9997
2 54674  87.9293 352.4899 0001507  89.9305 270.2001 13.21823611 99494
ONEWEB-0612             
1 54675U 22166AK  24354.48370262  .00000061  00000+0  11635-3 0  9999
2 54675  87.9291 352.4824 0002004  86.1706 273.9657 13.21826638 99475
ONEWEB-0615             
1 54676U 22166AL  24354.54045484  .00000019  00000+0  15398-4 0  9996
2 54676  87.9291 352.4968 0001905  81.2725 278.8624 13.21827961 99491
ONEWEB-0655             
1 54677U 22166AM  24354.51363698 -.00000111  00000+0 -29934-3 0  9999
2 54677  87.9293 352.5053 0001875  77.0027 283.1316 13.21826966 99484
ONEWEB-0659             
1 54678U 22166AN  24354.53099323  .00000004  00000+0 -21534-4 0  9992
2 54678  87.9292 352.5059 0001795  94.4552 265.6787 13.21823398 99570
ONEWEB-0685             
1 54679U 22166AP  24354.53256817  .00000050  00000+0  90093-4 0  9992
2 54679  87.9292 352.4976 0001937  81.9571 278.1783 13.21823645 99466
ONEWEB-0712             
1 54680U 22166AQ  24354.38981939  .00000114  00000+0  26568-3 0  9993
2 54680  87.9082 337.3096 0001610  65.1330 294.9968 13.16593578100372
ONEWEB-0714             
1 54681U 22166AR  24354.53887998 -.00002233  00000+0 -54380-2 0  9999
2 54681  87.9293 352.4856 0002186  84.7363 275.4020 13.21833813 99589
ONEWEB-0532             
1 55140U 23004A   24354.57099805 -.00000063  00000+0 -19428-3 0  9992
2 55140  87.9103 114.3588 0002098 108.8339 251.3020 13.17648051 95863
ONEWEB-0533             
1 55141U 23004B   24354.59041183  .00000478  00000+0  12926-2 0  9994
2 55141  87.8890  99.0928 0001654 100.2362 259.8953 13.12444548 96625
ONEWEB-0541             
1 55142U 23004C   24354.34706068 -.00000282  00000+0 -83104-3 0  9990
2 55142  87.8900 129.6216 0001528 101.1015 259.0285 13.11418644 94538
ONEWEB-0543             
1 55143U 23004D   24354.52273677  .00000053  00000+0  10107-3 0  9993
2 55143  87.9107  83.9079 0001414  94.6221 265.5073 13.18687268 97916
ONEWEB-0544             
1 55144U 23004E   24354.51639967 -.00000341  00000+0 -89892-3 0  9990
2 55144  87.9107  83.8964 0001589 108.8301 251.3003 13.18685638 97914
ONEWEB-0560             
1 55145U 23004F   24354.51008797  .00000102  00000+0  22558-3 0  9991
2 55145  87.9115  83.8596 0001361 111.0587 249.0691 13.18687766 97927
ONEWEB-0565             
1 55146U 23004G   24354.50375793  .00000100  00000+0  22204-3 0  9990
2 55146  87.9113  83.9302 0001827 124.4861 235.6444 13.18688478 97919
ONEWEB-0567             
1 55147U 23004H   24354.49743198 -.00000044  00000+0 -14475-3 0  9997
2 55147  87.9110  83.8862 0001540 121.2788 238.8495 13.18685071 97919
ONEWEB-0569             
1 55148U 23004J   24354.26118699  .00000076  00000+0  17264-3 0  9997
2 55148  87.8928  68.5793 0001175 139.9563 220.1653 13.13472009 98641
ONEWEB-0570             
1 55149U 23004K   24354.33304455  .00000076  00000+0  15906-3 0  9994
2 55149  87.9111  83.9195 0002412 114.7891 245.3492 13.18687968 97886
ONEWEB-0571             
1 55150U 23004L   24354.55433405 -.00000249  00000+0 -66397-3 0  9992
2 55150  87.9110  83.8830 0001902 138.0376 222.0902 13.18686731 97922
ONEWEB-0572             
1 55151U 23004M   24354.37358196  .00000096  00000+0  21486-3 0  9994
2 55151  87.9102 114.4053 0001714 110.7185 249.4131 13.17649761 95733
ONEWEB-0573             
1 55152U 23004N   24354.54802089  .00000045  00000+0  80573-4 0  9996
2 55152  87.9108  83.8963 0002182 129.9891 230.1433 13.18683942 97919
ONEWEB-0588             
1 55153U 23004P   24354.54168935 -.00000237  00000+0 -63338-3 0  9996
2 55153  87.9110  83.8734 0002175 114.1811 245.9548 13.18686612 97917
ONEWEB-0598             
1 55154U 23004Q   24354.32500842  .00000154  00000+0  39943-3 0  9991
2 55154  87.8898 129.6641 0001285 130.7244 229.3996 13.11412978 94488
ONEWEB-0599             
1 55155U 23004R   24354.33475194  .00000075  00000+0  15988-3 0  9999
2 55155  87.9107 114.4075 0001374 105.6115 254.5168 13.17649127 95737
ONEWEB-0614             
1 55156U 23004S   24354.31993652 -.00000052  00000+0 -18323-3 0  9995
2 55156  87.8900 129.6720 0001863  97.5159 262.6181 13.11415240 94424
ONEWEB-0616             
1 55157U 23004T   24354.37693764  .00000013  00000+0 -73027-6 0  9994
2 55157  87.9097 114.3986 0000849  58.6692 301.4523 13.17647777 95950
ONEWEB-0617             
1 55158U 23004U   24354.30807189  .00000387  00000+0  10568-2 0  9996
2 55158  87.8895 129.6622 0001864 106.6114 253.5219 13.11416581 94446
ONEWEB-0618             
1 55159U 23004V   24354.49377261  .00000630  00000+0  24859-3 0  9990
2 55159  86.9077  27.5688 0014641  50.2796 309.9685 14.27525668101777
ONEWEB-0619             
1 55160U 23004W   24354.33306942  .00000082  00000+0  17907-3 0  9990
2 55160  87.9102 114.3847 0001881  87.3694 272.7653 13.17647119 95847
ONEWEB-0620             
1 55161U 23004X   24354.37928242  .00000569  00000+0  15702-2 0  9998
2 55161  87.8899 129.6632 0001828 114.3711 245.7608 13.11414815 94425
ONEWEB-0621             
1 55162U 23004Y   24354.40640241 -.00000405  00000+0 -11794-2 0  9991
2 55162  87.8892 129.6207 0001661  92.6749 267.4569 13.11415954 94401
ONEWEB-0622             
1 55163U 23004Z   24354.33518921 -.00008163  00000+0 -23074-1 0  9995
2 55163  87.8892 129.6545 0002248 100.1035 260.0346 13.11457040 94383
ONEWEB-0623             
1 55164U 23004AA  24354.40395771  .00000027  00000+0  37149-4 0  9990
2 55164  87.9105 114.4251 0002421  99.2931 260.8475 13.17649232 95849
ONEWEB-0624             
1 55165U 23004AB  24354.55648291 -.00000324  00000+0 -93472-3 0  9997
2 55165  87.8890  99.1078 0001783 102.9379 257.1949 13.12443585 96613
ONEWEB-0625             
1 55166U 23004AC  24354.31789080  .00000074  00000+0  15628-3 0  9991
2 55166  87.9101 114.4406 0001442  97.4966 262.6330 13.17650074 95823
ONEWEB-0626             
1 55167U 23004AD  24354.30776099  .00000028  00000+0  39284-4 0  9991
2 55167  87.9099 114.4419 0001563 121.6068 238.5216 13.17647309 95823
ONEWEB-0627             
1 55168U 23004AE  24354.37188701  .00000112  00000+0  25617-3 0  9994
2 55168  87.9099 114.4308 0002267 104.6337 255.5045 13.17647809 95838
ONEWEB-0628             
1 55169U 23004AF  24354.53701960  .00000105  00000+0  25756-3 0  9997
2 55169  87.8891  99.0941 0002391  97.2267 262.9133 13.12442828 96599
ONEWEB-0629             
1 55170U 23004AG  24354.57524134  .00000086  00000+0  18873-3 0  9999
2 55170  87.9101 114.3634 0001765  88.7460 271.3873 13.17649564 95865
ONEWEB-0631             
1 55171U 23004AH  24354.53536803  .00000064  00000+0  12874-3 0  9993
2 55171  87.9118  83.7902 0002010 120.8786 239.2544 13.18689124 97894
